CCSDS_OMM_VERS,COMMENT,CREATION_DATE,ORIGINATOR,OBJECT_NAME,OBJECT_ID,CENTER_NAME,REF_FRAME,TIME_SYSTEM,MEAN_ELEMENT_THEORY,EPOCH,MEAN_MOTION,ECCENTRICITY,INCLINATION,RA_OF_ASC_NODE,ARG_OF_PERICENTER,MEAN_ANOMALY,EPHEMERIS_TYPE,CLASSIFICATION_TYPE,NORAD_CAT_ID,ELEMENT_SET_NO,REV_AT_EPOCH,BSTAR,MEAN_MOTION_DOT,MEAN_MOTION_DDOT,SEMIMAJOR_AXIS,PERIOD,APOAPSIS,PERIAPSIS,OBJECT_TYPE,RCS_SIZE,COUNTRY_CODE,LAUNCH_DATE,SITE,DECAY_DATE,FILE,GP_ID,TLE_LINE0,TLE_LINE1,TLE_LINE2,NORAD_KEY,JCAT,DeepCat,Satcat,Piece,Active,Type,Name,LDate,Parent,Owner,State,SDate,ExpandedStatus,DDate,ODate,Period,Perigee,PF,Apogee,AF,Inc,IF,OpOrbit,SATCAT_KEY
3.0,GENERATED VIA SPACE-TRACK.ORG API,2026-05-06T14:46:56,18 SPCS,BEIDOU 3G1,2018-085A,EARTH,TEME,UTC,SGP4,2026-05-06T12:11:20.661792,1.00273462,0.0007592,2.9693,98.4772,336.8664,131.8164,0,U,43683,999,2764,0.00000000000000,-0.00000100,0.0000000000000,42164.262,1436.073,35818.138,35754.116,PAYLOAD,LARGE,PRC,2018-11-01,XSC,,5177204,322298920,0 BEIDOU 3G1,1 43683U 18085A   26126.50787803 -.00000100  00000-0  00000+0 0  9992,2 43683   2.9693  98.4772 0007592 336.8664 131.8164  1.00273462 27649,43683,S43683,-,43683,2018-085A,A,P      O,Beidou DW 41,2018 Nov  1,S43684,CNSA,CN,2018 Nov  1 1621?,In Earth orbit,-,2026 May  5 ,    1436.073 ,   35754, ,   35817, ,  2.97 , ,GEO/S,43683
3.0,GENERATED VIA SPACE-TRACK.ORG API,2026-05-06T14:46:56,18 SPCS,ALPHASAT (I-4A F4),2013-038A,EARTH,TEME,UTC,SGP4,2026-05-06T11:32:49.263072,1.00271127,0.0002701,2.9934,1.6357,75.7694,345.0256,0,U,39215,999,4360,0.00000000000000,0.00000141,0.0000000000000,42164.916,1436.106,35798.17,35775.393,PAYLOAD,LARGE,IM,2013-07-25,FRGUI,,5177349,322297046,0 ALPHASAT (I-4A F4),1 39215U 13038A   26126.48112573  .00000141  00000-0  00000+0 0  9998,2 39215   2.9934   1.6357 0002701  75.7694 345.0256  1.00271127 43608,39215,S39215,-,39215,2013-038A,A,P,Inmarsat 4A F4,2013 Jul 25,S39218,INMRV/ESA,UK,2013 Jul 25 2021,In Earth orbit,-,2026 May  5 ,    1436.091 ,   35775, ,   35797, ,  2.99 , ,GEO/S,39215
3.0,GENERATED VIA SPACE-TRACK.ORG API,2026-05-06T14:46:56,18 SPCS,ATS 3,1967-111A,EARTH,TEME,UTC,SGP4,2026-05-06T12:38:12.116832,1.00271937,0.0015332,3.0724,78.844,31.1498,198.6803,0,U,3029,999,21421,0.00000000000000,-0.00000079,0.0000000000000,42164.689,1436.095,35851.201,35721.907,PAYLOAD,LARGE,US,1967-11-05,AFETR,,5177085,322295325,0 ATS 3,1  3029U 67111A   26126.52652913 -.00000079  00000-0  00000+0 0  9996,2  3029   3.0724  78.8440 0015332  31.1498 198.6803  1.00271937214218,3029,S03029,-,03029,1967-111A,P,P,ATS 3,1967 Nov  5,S03030,GSFC,US,1967 Nov  6 0006,In Earth orbit,-,2026 May  5 ,    1436.095 ,   35721, ,   35851, ,  3.07 , ,GEO/I,3029
3.0,GENERATED VIA SPACE-TRACK.ORG API,2026-05-06T14:46:56,18 SPCS,ATS 3,1967-111A,EARTH,TEME,UTC,SGP4,2026-05-06T12:38:12.116832,1.00271937,0.0015332,3.0724,78.844,31.1498,198.6803,0,U,3029,999,21421,0.00000000000000,-0.00000079,0.0000000000000,42164.689,1436.095,35851.201,35721.907,PAYLOAD,LARGE,US,1967-11-05,AFETR,,5177085,322295325,0 ATS 3,1  3029U 67111A   26126.52652913 -.00000079  00000-0  00000+0 0  9996,2  3029   3.0724  78.8440 0015332  31.1498 198.6803  1.00271937214218,3029,A01271,-,03029,1967-111,C,C AM,JPL SR-28-3,1967 Nov  5,S03029,GSFC,US,1967 Nov  6 1532,Attached to S03029 ATS 3,-,-,-,-,-,-,-,-,-,-,3029
3.0,GENERATED VIA SPACE-TRACK.ORG API,2026-05-06T14:56:52,18 SPCS,GALAXY 23 (TELSTAR 13),2003-034A,EARTH,TEME,UTC,SGP4,2026-05-06T13:15:38.618784,0.98956373,8.12e-05,3.0977,80.0734,324.3137,211.0722,0,U,27854,999,8328,0.00000000000000,-0.00000084,0.0000000000000,42537.569,1455.187,36162.888,36155.98,PAYLOAD,LARGE,US,2003-08-08,SEAL,,5177623,322308267,0 GALAXY 23 (TELSTAR 13),1 27854U 03034A   26126.55253031 -.00000084  00000-0  00000+0 0  9999,2 27854   3.0977  80.0734 0000812 324.3137 211.0722  0.98956373 83286,27854,S27854,-,27854,2003-034A,P,P,Echostar IX,2003 Aug  8,S27855,ECHOC,US,2003 Aug  8 0436,In Earth orbit,-,2026 May  5 ,    1455.195 ,   36156, ,   36162, ,  3.09 , ,GEO/ID,27854
3.0,GENERATED VIA SPACE-TRACK.ORG API,2026-05-06T14:46:56,18 SPCS,METEOSAT 11 (MSG 4),2015-034A,EARTH,TEME,UTC,SGP4,2026-05-06T06:20:19.796064,1.00267134,0.0001558,3.0977,71.3286,347.3744,269.8688,0,U,40732,999,679,0.00000000000000,0.00000070,0.0000000000000,42166.036,1436.164,35794.47,35781.331,PAYLOAD,LARGE,EUME,2015-07-15,FRGUI,,5177162,322297371,0 METEOSAT 11 (MSG 4),1 40732U 15034A   26126.26411801  .00000070  00000-0  00000+0 0  9995,2 40732   3.0977  71.3286 0001558 347.3744 269.8688  1.00267134  6795,40732,S40732,-,40732,2015-034A,A,P,Meteosat 11,2015 Jul 15,S40734,EUMET,I-EUM,2015 Jul 15 2222,In Earth orbit,-,2026 May  5 ,    1436.168 ,   35781, ,   35794, ,  3.10 , ,GEO/I,40732
3.0,GENERATED VIA SPACE-TRACK.ORG API,2026-05-06T14:46:56,18 SPCS,INTELSAT 2-F2,1967-001A,EARTH,TEME,UTC,SGP4,2026-05-06T09:30:38.672352,1.00198198,0.0006163,3.1474,77.6495,213.4381,32.1081,0,U,2639,999,11882,0.00000000000000,-0.00000266,0.0000000000000,42185.374,1437.152,35833.238,35781.24,PAYLOAD,LARGE,ITSO,1967-01-11,AFETR,,5177070,322295115,0 INTELSAT 2-F2,1  2639U 67001A   26126.39628093 -.00000266  00000-0  00000+0 0  9995,2  2639   3.1474  77.6495 0006163 213.4381  32.1081  1.00198198118829,2639,S02639,-,02639,1967-001A,P,P,INTELSAT II F-2,1967 Jan 11,S02643,SESINTU,US,1967 Jan 11 1120?,In Earth orbit,-,2026 May  5 ,    1437.146 ,   35780, ,   35833, ,  3.14 , ,GEO/ID,2639
3.0,GENERATED VIA SPACE-TRACK.ORG API,2026-05-06T14:46:56,18 SPCS,INTELSAT 2-F2,1967-001A,EARTH,TEME,UTC,SGP4,2026-05-06T09:30:38.672352,1.00198198,0.0006163,3.1474,77.6495,213.4381,32.1081,0,U,2639,999,11882,0.00000000000000,-0.00000266,0.0000000000000,42185.374,1437.152,35833.238,35781.24,PAYLOAD,LARGE,ITSO,1967-01-11,AFETR,,5177070,322295115,0 INTELSAT 2-F2,1  2639U 67001A   26126.39628093 -.00000266  00000-0  00000+0 0  9995,2  2639   3.1474  77.6495 0006163 213.4381  32.1081  1.00198198118829,2639,A01107,-,02639,1967-001,C,C AM,SVM-1,1967 Jan 11,S02639,INTEL,I-INT,1967 Jan 14 1011,Attached to S02639 INTELSAT II F-2,-,-,-,-,-,-,-,-,-,-,2639
3.0,GENERATED VIA SPACE-TRACK.ORG API,2026-05-06T14:46:56,18 SPCS,MORELOS 3,2015-056A,EARTH,TEME,UTC,SGP4,2026-05-06T10:57:38.637216,1.00271493,0.0002962,3.1553,13.9408,351.0179,270.672,0,U,40946,999,3886,0.00000000000000,-0.00000035,0.0000000000000,42164.814,1436.101,35799.168,35774.19,PAYLOAD,LARGE,MEX,2015-10-02,AFETR,,5177164,322297901,0 MORELOS 3,1 40946U 15056A   26126.45669719 -.00000035  00000-0  00000+0 0  9992,2 40946   3.1553  13.9408 0002962 351.0179 270.6720  1.00271493 38868,40946,S40946,-,40946,2015-056A,A,P,Morelos 3,2015 Oct  2,S40947,AEMX,MX,2015 Oct  2 1320,In Earth orbit,-,2026 May  5 ,    1436.086 ,   35774, ,   35798, ,  3.15 , ,GEO/I,40946
3.0,GENERATED VIA SPACE-TRACK.ORG API,2026-05-06T07:56:53,18 SPCS,ANIK F2,2004-027A,EARTH,TEME,UTC,SGP4,2026-05-05T21:12:35.873856,1.00272665,0.0004736,3.1774,79.9954,341.6315,9.1547,0,U,28378,999,4083,0.00000000000000,-0.00000041,0.0000000000000,42164.485,1436.084,35806.319,35766.381,PAYLOAD,LARGE,CA,2004-07-18,FRGUI,,5176809,322255595,0 ANIK F2,1 28378U 04027A   26125.88374854 -.00000041  00000-0  00000+0 0  9999,2 28378   3.1774  79.9954 0004736 341.6315   9.1547  1.00272665 40838,28378,S28378,-,28378,2004-027A,A,P,Anik F2,2004 Jul 18,S28379,TCANL,CA,2004 Jul 18 0112,In Earth orbit,-,2026 May  5 ,    1436.085 ,   35766, ,   35806, ,  3.18 , ,GEO/I,28378
3.0,GENERATED VIA SPACE-TRACK.ORG API,2026-05-06T14:56:52,18 SPCS,GALAXY 28 (IA 8),2005-022A,EARTH,TEME,UTC,SGP4,2026-05-06T09:35:15.730368,1.00275173,0.0003359,3.1917,79.4291,329.0679,292.4917,0,U,28702,999,5155,0.00000000000000,-0.00000191,0.0000000000000,42163.782,1436.048,35799.81,35771.484,PAYLOAD,LARGE,ITSO,2005-06-23,SEAL,,5177638,322309463,0 GALAXY 28 (IA 8),1 28702U 05022A   26126.39948762 -.00000191  00000-0  00000+0 0  9994,2 28702   3.1917  79.4291 0003359 329.0679 292.4917  1.00275173 51556,28702,S28702,-,28702,2005-022A,P,P,Galaxy 28,2005 Jun 23,S28703,SESINTU,US,2005 Jun 23 1432,In Earth orbit,-,2026 May  4 ,    1436.003 ,   35770, ,   35799, ,  3.19 , ,GEO/I,28702
3.0,GENERATED VIA SPACE-TRACK.ORG API,2026-05-06T15:06:46,18 SPCS,YAOGAN-41,2023-197A,EARTH,TEME,UTC,SGP4,2026-05-06T12:00:54.069984,1.00268001,0.0013192,3.2062,312.5005,184.0353,31.2493,0,U,58582,999,890,0.00000000000000,-0.00000357,0.0000000000000,42165.793,1436.151,35843.283,35732.033,PAYLOAD,LARGE,PRC,2023-12-15,WSC,,5177717,322311217,0 YAOGAN-41,1 58582U 23197A   26126.50062581 -.00000357  00000-0  00000+0 0  9999,2 58582   3.2062 312.5005 0013192 184.0353  31.2493  1.00268001  8906,58582,S58582,-,58582,2023-197A,A,P,Yaogan 41,2023 Dec 15,S58583,JHB/CAST,CN,2023 Dec 15 1418?,In Earth orbit,-,2026 May  5 ,    1436.141 ,   35732, ,   35842, ,  3.21 , ,GEO/I,58582
3.0,GENERATED VIA SPACE-TRACK.ORG API,2026-05-06T10:08:52,18 SPCS,SJ-29B,2025-315C,EARTH,TEME,UTC,SGP4,2026-05-05T23:47:59.339328,1.00275369,0.00071574,3.2896,96.136,343.0823,215.3151,0,U,67403,999,126,0.00000000000000,-0.00000064,0.0000000000000,42163.727,1436.046,35815.771,35755.414,PAYLOAD,,PRC,2025-12-30,WSC,,5176958,322290774,0 SJ-29B,1 67403U 25315C   26125.99165902 -.00000064  00000-0  00000-0 0  9994,2 67403   3.2896  96.1360 0007157 343.0823 215.3151  1.00275369  1268,67403,S67403,-,67403,2025-315C,A,P,Shi Jian 29B,2025 Dec 30,S67303,JHB,CN,2025 Dec 30 2306?,Attached to S67303 CZ-7A Y7 Stage 3,-,-,-,-,-,-,-,-,-,-,67403
